CONNECTA IOT-13         
1 67400U 26004AP  26032.96860414  .00004358  00000+0  21521-3 0  9993
2 67400  97.4538  34.0280 0011031  96.7054 263.5436 15.18344940  3246
CONNECTA IOT-14         
1 67401U 26004AQ  26032.96712670  .00013361  00000+0  64997-3 0  9992
2 67401  97.4483  34.0135 0011837  91.1290 269.1300 15.18459217  3246
CONNECTA IOT-15         
1 67402U 26004AR  26032.92338635  .00004642  00000+0  23943-3 0  9992
2 67402  97.4544  33.9375 0004970  79.6651 280.5142 15.16820787  3222
SHIJIAN-29B (SJ-29B)    
1 67403U 25315C   26032.93307004 -.00000078  00000+0  00000+0 0  9999
2 67403   3.0554  98.6537 0001743 308.8331 133.6409  1.00271447   336
STARLINK-36484          
1 67404U 26005A   26032.91668981 -.00444526  00000+0 -79645-2 0  9994
2 67404  43.0006  83.5048 0001110 276.5355 139.8934 15.50739484  4388
STARLINK-36452          
1 67405U 26005B   26032.91668981  .00044554  00000+0  76227-3 0  9994
2 67405  43.0005  83.4989 0000980 268.0424 150.3674 15.50530545  4384
STARLINK-36409          
1 67406U 26005C   26032.91668981  .00059585  00000+0  10152-2 0  9999
2 67406  43.0007  83.4950 0001937 297.8322 122.3629 15.50538305  4432
STARLINK-36510          
1 67407U 26005D   26032.91668981  .00060547  00000+0  10313-2 0  9999
2 67407  43.0006  83.4905 0001967 296.6838 125.4259 15.50539464  4434
STARLINK-36509          
1 67408U 26005E   26032.91668981  .00043230  00000+0  73987-3 0  9997
2 67408  43.0006  83.4840 0001043 269.5040 154.6517 15.50532231  4438
STARLINK-36507          
1 67409U 26005F   26032.91668981  .00056600  00000+0  96509-3 0  9998
2 67409  43.0005  83.4810 0001883 295.0667 130.8811 15.50535715  4439
STARLINK-36508          
1 67410U 26005G   26032.91668981  .00044457  00000+0  76034-3 0  9998
2 67410  43.0005  83.4755 0001495 277.4899 150.4806 15.50540734  4438
STARLINK-36503          
1 67411U 26005H   26032.91668981  .00043606  00000+0  74627-3 0  9990
2 67411  43.0004  83.4694 0001102 270.7308 159.1815 15.50530190  4178
