CCSDS_OMM_VERS = 2.0
CREATION_DATE  = 
ORIGINATOR     = 

OBJECT_NAME    = CONNECTA IOT-13
OBJECT_ID      = 2026-004AP
CENTER_NAME    = EARTH
REF_FRAME      = TEME
TIME_SYSTEM    = UTC
MEAN_ELEMENT_THEORY = SGP/SGP4

EPOCH          = 2026-02-01T23:14:47.397696
MEAN_MOTION    = 15.18344940
ECCENTRICITY   = .00110313
INCLINATION    = 97.4538
RA_OF_ASC_NODE = 34.0280
ARG_OF_PERICENTER = 96.7054
MEAN_ANOMALY   = 263.5436

EPHEMERIS_TYPE = 0
CLASSIFICATION_TYPE = U
NORAD_CAT_ID   = 67400
ELEMENT_SET_NO = 999
REV_AT_EPOCH   = 324
BSTAR          = .21521039E-3
MEAN_MOTION_DOT = .4358E-4
MEAN_MOTION_DDOT = 0

CCSDS_OMM_VERS = 2.0
CREATION_DATE  = 
ORIGINATOR     = 

OBJECT_NAME    = CONNECTA IOT-14
OBJECT_ID      = 2026-004AQ
CENTER_NAME    = EARTH
REF_FRAME      = TEME
TIME_SYSTEM    = UTC
MEAN_ELEMENT_THEORY = SGP/SGP4

EPOCH          = 2026-02-01T23:12:39.746880
MEAN_MOTION    = 15.18459217
ECCENTRICITY   = .00118377
INCLINATION    = 97.4483
RA_OF_ASC_NODE = 34.0135
ARG_OF_PERICENTER = 91.1290
MEAN_ANOMALY   = 269.1300

EPHEMERIS_TYPE = 0
CLASSIFICATION_TYPE = U
NORAD_CAT_ID   = 67401
ELEMENT_SET_NO = 999
REV_AT_EPOCH   = 324
BSTAR          = .64997479E-3
MEAN_MOTION_DOT = .13361E-3
MEAN_MOTION_DDOT = 0

CCSDS_OMM_VERS = 2.0
CREATION_DATE  = 
ORIGINATOR     = 

OBJECT_NAME    = CONNECTA IOT-15
OBJECT_ID      = 2026-004AR
CENTER_NAME    = EARTH
REF_FRAME      = TEME
TIME_SYSTEM    = UTC
MEAN_ELEMENT_THEORY = SGP/SGP4

EPOCH          = 2026-02-01T22:09:40.580640
MEAN_MOTION    = 15.16820787
ECCENTRICITY   = .00049704
INCLINATION    = 97.4544
RA_OF_ASC_NODE = 33.9375
ARG_OF_PERICENTER = 79.6651
MEAN_ANOMALY   = 280.5142

EPHEMERIS_TYPE = 0
CLASSIFICATION_TYPE = U
NORAD_CAT_ID   = 67402
ELEMENT_SET_NO = 999
REV_AT_EPOCH   = 322
BSTAR          = .23942946E-3
MEAN_MOTION_DOT = .4642E-4
MEAN_MOTION_DDOT = 0

CCSDS_OMM_VERS = 2.0
CREATION_DATE  = 
ORIGINATOR     = 

OBJECT_NAME    = SHIJIAN-29B (SJ-29B)
OBJECT_ID      = 2025-315C
CENTER_NAME    = EARTH
REF_FRAME      = TEME
TIME_SYSTEM    = UTC
MEAN_ELEMENT_THEORY = SGP/SGP4

EPOCH          = 2026-02-01T22:23:37.251456
MEAN_MOTION    = 1.00271447
ECCENTRICITY   = .00017437
INCLINATION    = 3.0554
RA_OF_ASC_NODE = 98.6537
ARG_OF_PERICENTER = 308.8331
MEAN_ANOMALY   = 133.6409

EPHEMERIS_TYPE = 0
CLASSIFICATION_TYPE = U
NORAD_CAT_ID   = 67403
ELEMENT_SET_NO = 999
REV_AT_EPOCH   = 33
BSTAR          = 0
MEAN_MOTION_DOT = -.78E-6
MEAN_MOTION_DDOT = 0

CCSDS_OMM_VERS = 2.0
CREATION_DATE  = 
ORIGINATOR     = 

OBJECT_NAME    = STARLINK-36484
OBJECT_ID      = 2026-005A
CENTER_NAME    = EARTH
REF_FRAME      = TEME
TIME_SYSTEM    = UTC
MEAN_ELEMENT_THEORY = SGP/SGP4

EPOCH          = 2026-02-01T22:00:01.999584
MEAN_MOTION    = 15.50739484
ECCENTRICITY   = .000111
INCLINATION    = 43.0006
RA_OF_ASC_NODE = 83.5048
ARG_OF_PERICENTER = 276.5355
MEAN_ANOMALY   = 139.8934

EPHEMERIS_TYPE = 0
CLASSIFICATION_TYPE = U
NORAD_CAT_ID   = 67404
ELEMENT_SET_NO = 999
REV_AT_EPOCH   = 438
BSTAR          = -.79645273E-2
MEAN_MOTION_DOT = -.444526E-2
MEAN_MOTION_DDOT = 0

CCSDS_OMM_VERS = 2.0
CREATION_DATE  = 
ORIGINATOR     = 

OBJECT_NAME    = STARLINK-36452
OBJECT_ID      = 2026-005B
CENTER_NAME    = EARTH
REF_FRAME      = TEME
TIME_SYSTEM    = UTC
MEAN_ELEMENT_THEORY = SGP/SGP4

EPOCH          = 2026-02-01T22:00:01.999584
MEAN_MOTION    = 15.50530545
ECCENTRICITY   = .00009808
INCLINATION    = 43.0005
RA_OF_ASC_NODE = 83.4989
ARG_OF_PERICENTER = 268.0424
MEAN_ANOMALY   = 150.3674

EPHEMERIS_TYPE = 0
CLASSIFICATION_TYPE = U
NORAD_CAT_ID   = 67405
ELEMENT_SET_NO = 999
REV_AT_EPOCH   = 438
BSTAR          = .76227454E-3
MEAN_MOTION_DOT = .44554E-3
MEAN_MOTION_DDOT = 0

CCSDS_OMM_VERS = 2.0
CREATION_DATE  = 
ORIGINATOR     = 

OBJECT_NAME    = STARLINK-36409
OBJECT_ID      = 2026-005C
CENTER_NAME    = EARTH
REF_FRAME      = TEME
TIME_SYSTEM    = UTC
MEAN_ELEMENT_THEORY = SGP/SGP4

EPOCH          = 2026-02-01T22:00:01.999584
MEAN_MOTION    = 15.50538305
ECCENTRICITY   = .00019378
INCLINATION    = 43.0007
RA_OF_ASC_NODE = 83.4950
ARG_OF_PERICENTER = 297.8322
MEAN_ANOMALY   = 122.3629

EPHEMERIS_TYPE = 0
CLASSIFICATION_TYPE = U
NORAD_CAT_ID   = 67406
ELEMENT_SET_NO = 999
REV_AT_EPOCH   = 443
BSTAR          = .10152182E-2
MEAN_MOTION_DOT = .59585E-3
MEAN_MOTION_DDOT = 0

CCSDS_OMM_VERS = 2.0
CREATION_DATE  = 
ORIGINATOR     = 

OBJECT_NAME    = STARLINK-36510
OBJECT_ID      = 2026-005D
CENTER_NAME    = EARTH
REF_FRAME      = TEME
TIME_SYSTEM    = UTC
MEAN_ELEMENT_THEORY = SGP/SGP4

EPOCH          = 2026-02-01T22:00:01.999584
MEAN_MOTION    = 15.50539464
ECCENTRICITY   = .00019672
INCLINATION    = 43.0006
RA_OF_ASC_NODE = 83.4905
ARG_OF_PERICENTER = 296.6838
MEAN_ANOMALY   = 125.4259

EPHEMERIS_TYPE = 0
CLASSIFICATION_TYPE = U
NORAD_CAT_ID   = 67407
ELEMENT_SET_NO = 999
REV_AT_EPOCH   = 443
BSTAR          = .10313409E-2
MEAN_MOTION_DOT = .60547E-3
MEAN_MOTION_DDOT = 0

CCSDS_OMM_VERS = 2.0
CREATION_DATE  = 
ORIGINATOR     = 

OBJECT_NAME    = STARLINK-36509
OBJECT_ID      = 2026-005E
CENTER_NAME    = EARTH
REF_FRAME      = TEME
TIME_SYSTEM    = UTC
MEAN_ELEMENT_THEORY = SGP/SGP4

EPOCH          = 2026-02-01T22:00:01.999584
MEAN_MOTION    = 15.50532231
ECCENTRICITY   = .00010438
INCLINATION    = 43.0006
RA_OF_ASC_NODE = 83.4840
ARG_OF_PERICENTER = 269.5040
MEAN_ANOMALY   = 154.6517

EPHEMERIS_TYPE = 0
CLASSIFICATION_TYPE = U
NORAD_CAT_ID   = 67408
ELEMENT_SET_NO = 999
REV_AT_EPOCH   = 443
BSTAR          = .73986971E-3
MEAN_MOTION_DOT = .4323E-3
MEAN_MOTION_DDOT = 0

CCSDS_OMM_VERS = 2.0
CREATION_DATE  = 
ORIGINATOR     = 

OBJECT_NAME    = STARLINK-36507
OBJECT_ID      = 2026-005F
CENTER_NAME    = EARTH
REF_FRAME      = TEME
TIME_SYSTEM    = UTC
MEAN_ELEMENT_THEORY = SGP/SGP4

EPOCH          = 2026-02-01T22:00:01.999584
MEAN_MOTION    = 15.50535715
ECCENTRICITY   = .0001883
INCLINATION    = 43.0005
RA_OF_ASC_NODE = 83.4810
ARG_OF_PERICENTER = 295.0667
MEAN_ANOMALY   = 130.8811

EPHEMERIS_TYPE = 0
CLASSIFICATION_TYPE = U
NORAD_CAT_ID   = 67409
ELEMENT_SET_NO = 999
REV_AT_EPOCH   = 443
BSTAR          = .96509459E-3
MEAN_MOTION_DOT = .566E-3
MEAN_MOTION_DDOT = 0

CCSDS_OMM_VERS = 2.0
CREATION_DATE  = 
ORIGINATOR     = 

OBJECT_NAME    = STARLINK-36508
OBJECT_ID      = 2026-005G
CENTER_NAME    = EARTH
REF_FRAME      = TEME
TIME_SYSTEM    = UTC
MEAN_ELEMENT_THEORY = SGP/SGP4

EPOCH          = 2026-02-01T22:00:01.999584
MEAN_MOTION    = 15.50540734
ECCENTRICITY   = .00014956
INCLINATION    = 43.0005
RA_OF_ASC_NODE = 83.4755
ARG_OF_PERICENTER = 277.4899
MEAN_ANOMALY   = 150.4806

EPHEMERIS_TYPE = 0
CLASSIFICATION_TYPE = U
NORAD_CAT_ID   = 67410
ELEMENT_SET_NO = 999
REV_AT_EPOCH   = 443
BSTAR          = .76034125E-3
MEAN_MOTION_DOT = .44457E-3
MEAN_MOTION_DDOT = 0

CCSDS_OMM_VERS = 2.0
CREATION_DATE  = 
ORIGINATOR     = 

OBJECT_NAME    = STARLINK-36503
OBJECT_ID      = 2026-005H
CENTER_NAME    = EARTH
REF_FRAME      = TEME
TIME_SYSTEM    = UTC
MEAN_ELEMENT_THEORY = SGP/SGP4

EPOCH          = 2026-02-01T22:00:01.999584
MEAN_MOTION    = 15.50530190
ECCENTRICITY   = .00011021
INCLINATION    = 43.0004
RA_OF_ASC_NODE = 83.4694
ARG_OF_PERICENTER = 270.7308
MEAN_ANOMALY   = 159.1815

EPHEMERIS_TYPE = 0
CLASSIFICATION_TYPE = U
NORAD_CAT_ID   = 67411
ELEMENT_SET_NO = 999
REV_AT_EPOCH   = 417
BSTAR          = .74626642E-3
MEAN_MOTION_DOT = .43606E-3
MEAN_MOTION_DDOT = 0

